ONEWEB-0697             
1 61603U 24188K   25191.72033975  .00000199  00000+0  52635-3 0  9995
2 61603  87.8808  89.1520 0002519  62.8585 297.2799 13.11415701 39699
ONEWEB-0698             
1 61604U 24188L   25191.69831075  .00000463  00000+0  12709-2 0  9990
2 61604  87.8821  89.1678 0003035  74.3460 285.8002 13.11417917 39717
ONEWEB-0699             
1 61605U 24188M   25191.74479647  .00000709  00000+0  19950-2 0  9998
2 61605  87.8822 104.3489 0002474  67.9120 292.2270 13.10373184 38596
ONEWEB-0700             
1 61606U 24188N   25191.82280466  .00000805  00000+0  22695-2 0  9994
2 61606  87.8766 104.2386 0002058  58.0933 302.0394 13.10372414 38592
ONEWEB-0701             
1 61607U 24188P   25191.76304306  .00000141  00000+0  36807-3 0  9992
2 61607  87.8817 104.3532 0002625  63.6203 296.5193 13.10369454 38590
ONEWEB-0702             
1 61608U 24188Q   25191.74406556 -.00000430  00000+0 -12482-2 0  9996
2 61608  87.8754  89.1267 0002403  56.5262 303.6095 13.11418521 39735
ONEWEB-0704             
1 61609U 24188R   25191.75142879  .00000620  00000+0  17392-2 0  9997
2 61609  87.8847 104.2908 0002451  54.0330 306.1025 13.10370857 38572
ONEWEB-0705             
1 61610U 24188S   25191.75640228  .00000454  00000+0  12645-2 0  9991
2 61610  87.8805 104.3389 0001518  37.0091 323.1141 13.10369661 30740
